{"type": "FeatureCollection", "features": [ {"type": "Feature", "properties": {"norad_id": 34529, "name": "IRIDIUM 33 DEB", "group": "iridium-33-debris", "lat": -52.5998473461806, "lon": 32.469051511621124, "alt_km": 764.8231883904473, "timestamp": "2025-12-08T10:52:03.332835+00:00", "meta": {"OBJECT_NAME": "IRIDIUM 33 DEB", "OBJECT_ID": "1997-051HW", "EPOCH": "2025-12-07T13:26:27.381696", "MEAN_MOTION": 14.40609758, "ECCENTRICITY": 0.00041639, "INCLINATION": 86.3644, "RA_OF_ASC_NODE": 37.6196, "ARG_OF_PERICENTER": 194.6749, "MEAN_ANOMALY": 165.433, "EPHEMERIS_TYPE": 0, "CLASSIFICATION_TYPE": "U", "NORAD_CAT_ID": 34529, "ELEMENT_SET_NO": 999, "REV_AT_EPOCH": 88067, "BSTAR": 0.000220683, "MEAN_MOTION_DOT": 7.23e-06, "MEAN_MOTION_DDOT": 0}, "tle": {"line1": "1 34529U 97051HW  25341.56003914  .00000723  00000+0  22068-3 0  9990", "line2": "2 34529  86.3644  37.6196 0004163 194.6749 165.4330 14.40609758880677"}}, "geometry": {"type": "Point", "coordinates": [32.469051511621124, -52.5998473461806]}}, {"type": "Feature", "properties": {"norad_id": 34538, "name": "IRIDIUM 33 DEB", "group": "iridium-33-debris", "lat": 66.07655839792301, "lon": 178.9941591180074, "alt_km": 759.1412433423793, "timestamp": "2025-12-08T10:52:03.332846+00:00", "meta": {"OBJECT_NAME": "IRIDIUM 33 DEB", "OBJECT_ID": "1997-051JF", "EPOCH": "2025-12-07T06:38:08.723904", "MEAN_MOTION": 14.42600183, "ECCENTRICITY": 0.00334838, "INCLINATION": 86.2771, "RA_OF_ASC_NODE": 7.9488, "ARG_OF_PERICENTER": 346.4929, "MEAN_ANOMALY": 141.5957, "EPHEMERIS_TYPE": 0, "CLASSIFICATION_TYPE": "U", "NORAD_CAT_ID": 34538, "ELEMENT_SET_NO": 999, "REV_AT_EPOCH": 87677, "BSTAR": 0.0014728578, "MEAN_MOTION_DOT": 4.942e-05, "MEAN_MOTION_DDOT": 0}, "tle": {"line1": "1 34538U 97051JF  25341.27648986  .00004942  00000+0  14729-2 0  9993", "line2": "2 34538  86.2771   7.9488 0033483 346.4929 141.5957 14.42600183876776"}}, "geometry": {"type": "Point", "coordinates": [178.9941591180074, 66.07655839792301]}}, {"type": "Feature", "properties": {"norad_id": 34540, "name": "IRIDIUM 33 DEB", "group": "iridium-33-debris", "lat": 28.503763641275636, "lon": -48.42566454814655, "alt_km": 652.4360827390847, "timestamp": "2025-12-08T10:52:03.332856+00:00", "meta": {"OBJECT_NAME": "IRIDIUM 33 DEB", "OBJECT_ID": "1997-051JH", "EPOCH": "2025-12-07T22:02:16.035360", "MEAN_MOTION": 14.75161362, "ECCENTRICITY": 0.0015532, "INCLINATION": 86.3104, "RA_OF_ASC_NODE": 309.8105, "ARG_OF_PERICENTER": 176.3599, "MEAN_ANOMALY": 255.3515, "EPHEMERIS_TYPE": 0, "CLASSIFICATION_TYPE": "U", "NORAD_CAT_ID": 34540, "ELEMENT_SET_NO": 999, "REV_AT_EPOCH": 88950, "BSTAR": 0.0021313742, "MEAN_MOTION_DOT": 0.00014454, "MEAN_MOTION_DDOT": 0}, "tle": {"line1": "1 34540U 97051JH  25341.91824115  .00014454  00000+0  21314-2 0  9994", "line2": "2 34540  86.3104 309.8105 0015532 176.3599 255.3515 14.75161362889504"}}, "geometry": {"type": "Point", "coordinates": [-48.42566454814655, 28.503763641275636]}}, {"type": "Feature", "properties": {"norad_id": 34648, "name": "IRIDIUM 33 DEB", "group": "iridium-33-debris", "lat": 80.55222537727441, "lon": -54.04134790431464, "alt_km": 930.5438671885659, "timestamp": "2025-12-08T10:52:03.332867+00:00", "meta": {"OBJECT_NAME": "IRIDIUM 33 DEB", "OBJECT_ID": "1997-051JZ", "EPOCH": "2025-12-06T19:20:47.044320", "MEAN_MOTION": 14.11197938, "ECCENTRICITY": 0.01849632, "INCLINATION": 86.3922, "RA_OF_ASC_NODE": 284.3423, "ARG_OF_PERICENTER": 317.3129, "MEAN_ANOMALY": 41.3805, "EPHEMERIS_TYPE": 0, "CLASSIFICATION_TYPE": "U", "NORAD_CAT_ID": 34648, "ELEMENT_SET_NO": 999, "REV_AT_EPOCH": 84877, "BSTAR": 0.013223828, "MEAN_MOTION_DOT": 0.00028092, "MEAN_MOTION_DDOT": 0}, "tle": {"line1": "1 34648U 97051JZ  25340.80610005  .00028092  00000+0  13224-1 0  9994", "line2": "2 34648  86.3922 284.3423 0184963 317.3129  41.3805 14.11197938848779"}}, "geometry": {"type": "Point", "coordinates": [-54.04134790431464, 80.55222537727441]}}, {"type": "Feature", "properties": {"norad_id": 34651, "name": "IRIDIUM 33 DEB", "group": "iridium-33-debris", "lat": -81.85568936866368, "lon": 115.39037907100692, "alt_km": 761.1714500289208, "timestamp": "2025-12-08T10:52:03.332877+00:00", "meta": {"OBJECT_NAME": "IRIDIUM 33 DEB", "OBJECT_ID": "1997-051KC", "EPOCH": "2025-12-06T22:11:54.879936", "MEAN_MOTION": 14.25664536, "ECCENTRICITY": 0.01419317, "INCLINATION": 86.2838, "RA_OF_ASC_NODE": 143.05, "ARG_OF_PERICENTER": 222.4049, "MEAN_ANOMALY": 136.6106, "EPHEMERIS_TYPE": 0, "CLASSIFICATION_TYPE": "U", "NORAD_CAT_ID": 34651, "ELEMENT_SET_NO": 999, "REV_AT_EPOCH": 85813, "BSTAR": 0.004978077, "MEAN_MOTION_DOT": 0.00013145, "MEAN_MOTION_DDOT": 0}, "tle": {"line1": "1 34651U 97051KC  25340.92494074  .00013145  00000+0  49781-2 0  9998", "line2": "2 34651  86.2838 143.0500 0141931 222.4049 136.6106 14.25664536858131"}}, "geometry": {"type": "Point", "coordinates": [115.39037907100692, -81.85568936866368]}}, {"type": "Feature", "properties": {"norad_id": 34652, "name": "IRIDIUM 33 DEB", "group": "iridium-33-debris", "lat": 51.6332788744846, "lon": 157.26157994162753, "alt_km": 700.6285472726095, "timestamp": "2025-12-08T10:52:03.332887+00:00", "meta": {"OBJECT_NAME": "IRIDIUM 33 DEB", "OBJECT_ID": "1997-051KD", "EPOCH": "2025-12-07T18:40:52.005216", "MEAN_MOTION": 14.61987873, "ECCENTRICITY": 0.00264464, "INCLINATION": 86.3313, "RA_OF_ASC_NODE": 342.2105, "ARG_OF_PERICENTER": 316.1638, "MEAN_ANOMALY": 224.5751, "EPHEMERIS_TYPE": 0, "CLASSIFICATION_TYPE": "U", "NORAD_CAT_ID": 34652, "ELEMENT_SET_NO": 999, "REV_AT_EPOCH": 88411, "BSTAR": 0.0017107824, "MEAN_MOTION_DOT": 8.64e-05, "MEAN_MOTION_DDOT": 0}, "tle": {"line1": "1 34652U 97051KD  25341.77837969  .00008640  00000+0  17108-2 0  9999", "line2": "2 34652  86.3313 342.2105 0026446 316.1638 224.5751 14.61987873884115"}}, "geometry": {"type": "Point", "coordinates": [157.26157994162753, 51.6332788744846]}}, {"type": "Feature", "properties": {"norad_id": 34690, "name": "IRIDIUM 33 DEB", "group": "iridium-33-debris", "lat": 81.14908546700445, "lon": -165.1447282131984, "alt_km": 697.2942175267417, "timestamp": "2025-12-08T10:52:03.332898+00:00", "meta": {"OBJECT_NAME": "IRIDIUM 33 DEB", "OBJECT_ID": "1997-051KM", "EPOCH": "2025-12-07T22:01:41.008800", "MEAN_MOTION": 14.5506789, "ECCENTRICITY": 0.00113723, "INCLINATION": 86.3784, "RA_OF_ASC_NODE": 39.0871, "ARG_OF_PERICENTER": 43.7388, "MEAN_ANOMALY": 133.6613, "EPHEMERIS_TYPE": 0, "CLASSIFICATION_TYPE": "U", "NORAD_CAT_ID": 34690, "ELEMENT_SET_NO": 999, "REV_AT_EPOCH": 88024, "BSTAR": 0.00065617723, "MEAN_MOTION_DOT": 2.851e-05, "MEAN_MOTION_DDOT": 0}, "tle": {"line1": "1 34690U 97051KM  25341.91783575  .00002851  00000+0  65618-3 0  9998", "line2": "2 34690  86.3784  39.0871 0011372  43.7388 133.6613 14.55067890880245"}}, "geometry": {"type": "Point", "coordinates": [-165.1447282131984, 81.14908546700445]}}, {"type": "Feature", "properties": {"norad_id": 34693, "name": "IRIDIUM 33 DEB", "group": "iridium-33-debris", "lat": 63.64587467909186, "lon": 118.45903070942673, "alt_km": 474.9168781672288, "timestamp": "2025-12-08T10:52:03.332908+00:00", "meta": {"OBJECT_NAME": "IRIDIUM 33 DEB", "OBJECT_ID": "1997-051KQ", "EPOCH": "2025-12-07T22:02:58.454304", "MEAN_MOTION": 15.26250885, "ECCENTRICITY": 0.00150657, "INCLINATION": 86.3063, "RA_OF_ASC_NODE": 306.2164, "ARG_OF_PERICENTER": 60.7141, "MEAN_ANOMALY": 2.5462, "EPHEMERIS_TYPE": 0, "CLASSIFICATION_TYPE": "U", "NORAD_CAT_ID": 34693, "ELEMENT_SET_NO": 999, "REV_AT_EPOCH": 88841, "BSTAR": 0.005329848, "MEAN_MOTION_DOT": 0.00140844, "MEAN_MOTION_DDOT": 0}, "tle": {"line1": "1 34693U 97051KQ  25341.91873211  .00140844  00000+0  53298-2 0  9993", "line2": "2 34693  86.3063 306.2164 0015065  60.7141   2.5462 15.26250885888411"}}, "geometry": {"type": "Point", "coordinates": [118.45903070942673, 63.64587467909186]}}, {"type": "Feature", "properties": {"norad_id": 34696, "name": "IRIDIUM 33 DEB", "group": "iridium-33-debris", "lat": 82.89620214931305, "lon": 61.89089378693914, "alt_km": 677.367049418257, "timestamp": "2025-12-08T10:52:03.332918+00:00", "meta": {"OBJECT_NAME": "IRIDIUM 33 DEB", "OBJECT_ID": "1997-051KT", "EPOCH": "2025-12-07T15:23:57.385824", "MEAN_MOTION": 14.64684407, "ECCENTRICITY": 0.00743957, "INCLINATION": 86.1851, "RA_OF_ASC_NODE": 29.8959, "ARG_OF_PERICENTER": 184.7864, "MEAN_ANOMALY": 305.4962, "EPHEMERIS_TYPE": 0, "CLASSIFICATION_TYPE": "U", "NORAD_CAT_ID": 34696, "ELEMENT_SET_NO": 999, "REV_AT_EPOCH": 86598, "BSTAR": 0.0083761654, "MEAN_MOTION_DOT": 0.00046678, "MEAN_MOTION_DDOT": 0}, "tle": {"line1": "1 34696U 97051KT  25341.64163641  .00046678  00000+0  83762-2 0  9994", "line2": "2 34696  86.1851  29.8959 0074395 184.7864 305.4962 14.64684407865986"}}, "geometry": {"type": "Point", "coordinates": [61.89089378693914, 82.89620214931305]}}, {"type": "Feature", "properties": {"norad_id": 34765, "name": "IRIDIUM 33 DEB", "group": "iridium-33-debris", "lat": -7.906952411516032, "lon": 34.09178631758743, "alt_km": 767.2440448907382, "timestamp": "2025-12-08T10:52:03.332929+00:00", "meta": {"OBJECT_NAME": "IRIDIUM 33 DEB", "OBJECT_ID": "1997-051LJ", "EPOCH": "2025-12-07T22:23:18.585600", "MEAN_MOTION": 14.40446103, "ECCENTRICITY": 0.00149735, "INCLINATION": 86.3396, "RA_OF_ASC_NODE": 34.8242, "ARG_OF_PERICENTER": 228.3998, "MEAN_ANOMALY": 309.0487, "EPHEMERIS_TYPE": 0, "CLASSIFICATION_TYPE": "U", "NORAD_CAT_ID": 34765, "ELEMENT_SET_NO": 999, "REV_AT_EPOCH": 87544, "BSTAR": 0.00062060409, "MEAN_MOTION_DOT": 1.993e-05, "MEAN_MOTION_DDOT": 0}, "tle": {"line1": "1 34765U 97051LJ  25341.93285400  .00001993  00000+0  62060-3 0  9991", "line2": "2 34765  86.3396  34.8242 0014973 228.3998 309.0487 14.40446103875446"}}, "geometry": {"type": "Point", "coordinates": [34.09178631758743, -7.906952411516032]}}]}